ZHONGXING-10R           
1 63075U 25036A   25082.85112089 -.00000351  00000+0  00000+0 0  9996
2 63075   0.0792 264.2401 0002251 133.7544 215.9662  1.00269148   414
CZ-3B R/B               
1 63076U 25036B   25055.05394378  .00059053  12400-5  46825-2 0  9995
2 63076  27.6838 331.3643 7300243 180.7131 177.9389  2.28429853    31
STARLINK-32839          
1 63077U 25037A   25083.41668981 -.01375883  00000+0 -23318-1 0  9995
2 63077  69.9998 169.6263 0003540 276.7085 109.4756 15.54265974  5785
STARLINK-32821          
1 63078U 25037B   25083.41668981 -.01374784  00000+0 -23298-1 0  9992
2 63078  69.9999 169.6240 0003555 277.0616 111.0395 15.54265046  5667
STARLINK-32817          
1 63079U 25037C   25083.41668981 -.01375343  00000+0 -23307-1 0  9996
2 63079  69.9998 169.6218 0003708 275.2021 114.8155 15.54265049  5738
STARLINK-32906          
1 63080U 25037D   25083.41668981 -.01376994  00000+0 -23338-1 0  9995
2 63080  69.9998 169.6172 0003608 277.5369 116.3130 15.54266231  5833
STARLINK-32895          
1 63081U 25037E   25082.91668981 -.01368736  00000+0 -22001-1 0  9991
2 63081  69.9994 170.9945 0003396 279.2602 194.6167 15.55686633  5658
STARLINK-32933          
1 63082U 25037F   25082.91668981 -.01367510  00000+0 -21980-1 0  9996
2 63082  69.9993 170.9871 0003412 278.3375 201.2898 15.55685432  5755
STARLINK-32932          
1 63083U 25037G   25082.91668981 -.01369288  00000+0 -22010-1 0  9996
2 63083  69.9994 170.9895 0003439 278.8012 198.9084 15.55687149  5605
STARLINK-32908          
1 63084U 25037H   25082.91668981 -.01367537  00000+0 -21980-1 0  9997
2 63084  69.9994 170.9825 0003478 278.0287 205.4317 15.55685288  5490
STARLINK-32505          
1 63085U 25037J   25082.91668981 -.01367636  00000+0 -21981-1 0  9999
2 63085  69.9994 170.9850 0003386 279.1115 202.4293 15.55687257  5767
STARLINK-32914          
1 63086U 25037K   25082.91668981 -.01366943  00000+0 -21970-1 0  9998
2 63086  69.9994 170.9802 0003426 278.2558 207.1209 15.55685172  5809
STARLINK-32918          
1 63087U 25037L   25082.91668981 -.01368892  00000+0 -22004-1 0  9993
2 63087  69.9995 170.9781 0003364 279.5174 207.7746 15.55686710  5807
STARLINK-32912          
1 63088U 25037M   25082.91668981 -.01367446  00000+0 -21979-1 0  9998
2 63088  69.9995 170.9757 0003374 278.6635 210.5457 15.55685684  5804
STARLINK-32910          
1 63089U 25037N   25082.91668981 -.01368797  00000+0 -22003-1 0  9998
2 63089  69.9994 170.9735 0003378 279.0298 212.0970 15.55685702  5802
STARLINK-32903          
1 63090U 25037P   25082.91668981 -.01365704  00000+0 -21949-1 0  9993
2 63090  69.9994 170.9711 0003384 278.5714 214.4715 15.55684350  5443
STARLINK-32925          
1 63091U 25037Q   25082.91668981 -.01365418  00000+0 -21944-1 0  9991
2 63091  69.9994 170.9688 0003417 278.3639 216.5960 15.55683861  5753
STARLINK-32924          
1 63092U 25037R   25082.91668981 -.01367118  00000+0 -21973-1 0  9993
2 63092  69.9994 170.9666 0003340 278.6580 218.2157 15.55686258  5809
STARLINK-32900          
1 63093U 25037S   25082.91668981 -.01367475  00000+0 -21980-1 0  9998
2 63093  69.9994 170.9642 0003330 278.4981 220.2938 15.55685586  5607
STARLINK-32927          
1 63094U 25037T   25082.91668981 -.01369896  00000+0 -22022-1 0  9996
2 63094  69.9994 170.9621 0003314 279.2314 221.4761 15.55687122  5768
STARLINK-32907          
1 63095U 25037U   25082.91668981 -.01369885  00000+0 -22021-1 0  9994
2 63095  69.9994 170.9598 0003368 279.2565 223.3667 15.55687489  5761
STARLINK-32911          
1 63096U 25037V   25082.91668981 -.01368594  00000+0 -21999-1 0  9994
2 63096  69.9994 170.9575 0003329 278.9366 225.6034 15.55686719  5802
STARLINK-32923          
1 63097U 25037W   25082.91668981 -.01367974  00000+0 -21988-1 0  9994
2 63097  69.9995 170.9525 0003322 278.1357 230.2371 15.55686764  5800
STARLINK-32913          
1 63098U 25037X   25082.91668981 -.01368013  00000+0 -21989-1 0  9991
2 63098  69.9995 170.9549 0003339 278.5334 227.9237 15.55686203  5750
STARLINK-11629 [DTC]    
1 63104U 25039A   25083.35741602  .00013118  00000+0  78056-4 0  9992
2 63104  42.9941 193.3446 0000593 235.8972 124.1842 15.77876737  5182
STARLINK-11624 [DTC]    
1 63105U 25039B   25083.35253942  .00026373  00000+0  15390-3 0  9996
2 63105  42.9959 193.3008 0002081 248.8450 111.2198 15.77861717  5177
STARLINK-11584 [DTC]    
1 63106U 25039C   25083.34765655  .00043518  00000+0  25115-3 0  9991
2 63106  42.9974 193.2671 0001494 245.5747 114.4967 15.77901285  5174
STARLINK-11627 [DTC]    
1 63107U 25039D   25083.02629553  .00042800  00000+0  24735-3 0  9993
2 63107  42.9980 195.1540 0001408  53.3203 306.7796 15.77876510  5128
STARLINK-11632 [DTC]    
1 63108U 25039E   25083.02140235  .00086432  00000+0  49349-3 0  9996
2 63108  42.9968 195.1139 0002381 275.5282  84.5316 15.77900670  5129
STARLINK-11625 [DTC]    
1 63109U 25039F   25083.01652339  .00031999  00000+0  18595-3 0  9996
2 63109  42.9961 195.0733 0001603 253.4141 106.6553 15.77868416  5127
STARLINK-11601 [DTC]    
1 63110U 25039G   25083.01164199  .00028400  00000+0  16552-3 0  9994
2 63110  42.9968 195.0332 0002108 263.6765  96.3865 15.77854594  5120
STARLINK-11630 [DTC]    
1 63111U 25039H   25083.57645516  .00039755  00000+0  22965-3 0  9993
2 63111  42.9969 191.5248 0000682  34.9523 325.1392 15.77914848  5212
STARLINK-11590 [DTC]    
1 63112U 25039J   25082.91668981 -.00033442  00000+0 -18985-3 0  9998
2 63112  42.9979 195.4741 0001722 278.3553 317.1913 15.77879139  5143
STARLINK-11598 [DTC]    
1 63113U 25039K   25083.08335648 -.00038151  00000+0 -21711-3 0  9992
2 63113  42.9987 194.3887 0002030 270.7386 220.4372 15.77877880  5141
STARLINK-11600 [DTC]    
1 63114U 25039L   25082.91668981 -.00041125  00000+0 -23424-3 0  9991
2 63114  42.9991 195.3350 0002154 286.1844   4.8556 15.77887074  5144
STARLINK-11597 [DTC]    
1 63115U 25039M   25082.91668981  .00030423  00000+0  17712-3 0  9992
2 63115  42.9987 195.2655 0001763 279.9292  38.8692 15.77848566  5140
STARLINK-11591 [DTC]    
1 63116U 25039N   25083.08335648 -.01078042  00000+0 -62998-2 0  9990
2 63116  42.9981 194.1867 0001782 274.1212 297.3560 15.79813892  5106
STARLINK-32955          
1 63117U 25039P   25083.41668981 -.01546792  00000+0 -29587-1 0  9995
2 63117  42.9992 194.5999 0001203 269.1197 134.1292 15.50217134  5165
STARLINK-32945          
1 63118U 25039Q   25083.08335648 -.00047875  00000+0 -81451-3 0  9997
2 63118  42.9995 196.5427 0001612 261.7235  80.6120 15.50602982  5111
STARLINK-32941          
1 63119U 25039R   25082.91668981 -.00055066  00000+0 -93809-3 0  9999
2 63119  42.9993 197.5083 0001466 291.0166 203.6739 15.50618354  5141
STARLINK-32942          
1 63120U 25039S   25083.41668981 -.00013736  00000+0 -22873-3 0  9998
2 63120  42.9992 194.5901 0001253 273.5443 133.6338 15.50579877  5159
STARLINK-32947          
1 63121U 25039T   25083.41668981 -.00052195  00000+0 -88781-3 0  9991
2 63121  42.9991 194.5812 0001330 276.0109 134.9278 15.50642244  5160
STARLINK-32961          
1 63122U 25039U   25083.08335648  .00009576  00000+0  16887-3 0  9997
2 63122  42.9995 196.5230 0001564 273.3472  76.6543 15.50575495  5118
STARLINK-32948          
1 63123U 25039V   25083.41668981 -.00047506  00000+0 -80817-3 0  9995
2 63123  42.9991 194.5706 0001439 262.1597 152.6729 15.50602788  5168
STARLINK-32957          
1 63124U 25039W   25083.41668981 -.01034079  00000+0 -19153-1 0  9991
2 63124  42.9991 194.5663 0001593 276.6577 140.0527 15.50891940  5167
SUPERVIEW NEO-1 03      
1 63125U 25040A   25083.52301907  .00001284  00000+0  59693-4 0  9993
2 63125  97.3129 204.4096 0000533 180.9974 179.1261 15.21709268  3803
SUPERVIEW NEO-1 04      
1 63126U 25040B   25083.39205531  .00001756  00000+0  80577-4 0  9994
2 63126  97.3139 204.2836 0000615 185.4363 174.6867 15.21711545  3799
CZ-2C R/B               
1 63127U 25040C   25082.87327469  .00023193  00000+0  89822-3 0  9992
2 63127  97.1402 203.0623 0016796 233.8238 126.1448 15.26037543  3722
PROGRESS-MS 30          
1 63129U 25041B   25082.81935730  .00030504  00000+0  54208-3 0  9999
2 63129  51.6367   9.8496 0003778  44.5756 315.5536 15.49908264501533
COSMOS 2584 [GLONASS-K2]
1 63130U 25042A   25082.18408371  .00000068  00000+0  00000+0 0  9997
2 63130  64.8338  88.1634 0007714 239.5328 120.4286  2.13103349   434
FREGAT R/B              
1 63131U 25042B   25081.20083828  .00000058  00000+0  00000+0 0  9995
2 63131  64.8337  88.1968 0017051 197.8069 162.1689  2.13753480   401
STARLINK-11609 [DTC]    
1 63132U 25043A   25083.32584070  .00005803  00000+0  36232-4 0  9991
2 63132  42.9952 203.9826 0001531 257.9330 102.1368 15.77826949  4347
STARLINK-11604 [DTC]    
1 63133U 25043B   25083.38424581  .00017259  00000+0  10183-3 0  9992
2 63133  42.9943 203.5560 0001883 252.8653 107.2011 15.77857711  4242
STARLINK-11605 [DTC]    
1 63134U 25043C   25082.74637040  .00015038  00000+0  89145-4 0  9996
2 63134  42.9977 207.3796 0001404 264.3775  95.6935 15.77851223  4141
STARLINK-11610 [DTC]    
1 63135U 25043D   25083.37448131  .00006044  00000+0  37590-4 0  9992
2 63135  43.0009 203.4797 0002074 267.7839  92.2794 15.77845815  4247
STARLINK-11613 [DTC]    
1 63136U 25043E   25083.36961093  .00019841  00000+0  11659-3 0  9995
2 63136  42.9977 203.4404 0001547 261.3047  98.7648 15.77860158  4358
STARLINK-11616 [DTC]    
1 63137U 25043F   25083.36473077  .00023399  00000+0  13687-3 0  9992
2 63137  42.9973 203.3995 0001208 233.9228 126.1530 15.77869998  4367
STARLINK-11611 [DTC]    
1 63138U 25043G   25083.08335648 -.00037565  00000+0 -21370-3 0  9993
2 63138  42.9984 205.0449 0001533 256.6060 330.9703 15.77881799  4315
STARLINK-11628 [DTC]    
1 63139U 25043H   25082.91668981 -.00023320  00000+0 -13141-3 0  9995
2 63139  42.9987 205.9912 0001888 281.8582 105.6037 15.77870501  4311
STARLINK-11607 [DTC]    
1 63140U 25043J   25083.41668981 -.00021860  00000+0 -12299-3 0  9993
2 63140  42.9988 202.8764 0001985 257.4451 121.3927 15.77868150  4373
STARLINK-11522 [DTC]    
1 63141U 25043K   25083.41668981 -.00252787  00000+0 -14834-2 0  9994
2 63141  42.9990 202.8074 0002236 267.1676 139.3459 15.77998074  4196
STARLINK-11503 [DTC]    
1 63142U 25043L   25083.08335648 -.01106550  00000+0 -60092-2 0  9993
2 63142  42.9985 204.7906 0002020 275.5601  53.1462 15.81447930  4134
STARLINK-11579 [DTC]    
1 63143U 25043M   25083.52875205 -.00367215  00000+0 -17003-2 0  9991
2 63143  42.9985 202.0312 0001771 264.3603  95.7068 15.83408505  4273
STARLINK-11581 [DTC]    
1 63144U 25043N   25082.70833557  .00020309  00000+0  88274-4 0  9993
2 63144  42.9970 207.0662 0001265 246.0816 113.9924 15.84405875  4263
STARLINK-32949          
1 63145U 25043P   25083.41668981  .00068174  00000+0  11601-2 0  9990
2 63145  42.9996 204.4006 0002023 280.9681 203.4844 15.50522211  4246
STARLINK-32952          
1 63146U 25043Q   25083.08335648 -.00981762  00000+0 -10600-1 0  9991
2 63146  42.9995 205.8619 0001690 275.7921 342.5377 15.65355241  4259
STARLINK-32936          
1 63147U 25043R   25083.41668981 -.00131787  00000+0 -22761-2 0  9994
2 63147  42.9996 204.4296 0001790 282.4265 190.5120 15.50607770  4308
STARLINK-32937          
1 63148U 25043S   25083.41668981  .00068308  00000+0  11620-2 0  9993
2 63148  42.9996 204.4248 0002015 279.2656 195.6062 15.50530616  4243
STARLINK-32939          
1 63149U 25043T   25083.41668981  .00066854  00000+0  11378-2 0  9998
2 63149  42.9996 204.4147 0001906 282.4622 196.2385 15.50526034  4300
STARLINK-32919          
1 63150U 25043U   25083.41668981  .00065028  00000+0  11071-2 0  9992
2 63150  42.9996 204.4202 0001971 281.5597 195.2260 15.50526751  4359
STARLINK-32876          
1 63151U 25043V   25083.41668981  .00067206  00000+0  11439-2 0  9991
2 63151  42.9996 204.4105 0002007 283.2180 197.3998 15.50521150  4304
STARLINK-32915          
1 63152U 25043W   25083.41668981 -.01484497  00000+0 -19133-1 0  9998
2 63152  42.9993 202.8733 0001517 276.0327 100.6239 15.61144330  4318
SEDNA-2                 
1 63153U 25009DQ  25082.76982946  .00024471  00000+0  18169-2 0  9996
2 63153  97.4949 163.6285 0011811 165.5017 194.6550 15.02968072 10258
CSO-3                   
1 63156U 25044A   25072.94278397  .00000405  00000+0  16071-3 0  9997
2 63156  98.6060  14.3262 0001932  17.4270 342.6981 14.34022377  1036
TJS-15                  
1 63157U 25045A   25082.91552169 -.00000232  00000+0  00000+0 0  9999
2 63157   0.0367 127.8377 0001443  29.4179  84.3392  1.00274641   249
CZ-3B R/B               
1 63158U 25045B   25083.27396903  .00095104 -59861-6  46078-3 0  9999
2 63158  19.0837  58.5161 7356191 190.2280 136.0026  2.24319278   379
PUNCH-NFI (SMEX 15A)    
1 63178U 25047A   25082.78375043  .00003192  00000+0  49344-3 0  9998
2 63178  97.9556 271.4620 0011711 159.2850 200.8835 14.73934873  1715
PUNCH-WFI 1 (SMEX 15B)  
1 63179U 25047B   25082.78529061  .00002636  00000+0  41073-3 0  9993
2 63179  97.9578 271.4614 0011273 162.8333 197.3259 14.73732201  1713
PUNCH-WFI 3 (SMEX 15D)  
1 63180U 25047C   25083.33044322  .00002418  00000+0  37951-3 0  9997
2 63180  97.9532 271.9878 0010653 165.9771 194.1735 14.73493361  1796
PUNCH-WFI 2 (SMEX 15C)  
1 63181U 25047D   25082.78889729  .00002505  00000+0  39511-3 0  9995
2 63181  97.9552 271.4545 0010218 172.7396 187.3962 14.73259071  1717
SPHEREX (MIDEX 9)       
1 63182U 25047E   25082.93011011  .00003946  00000+0  62686-3 0  9993
2 63182  97.9569 271.5785 0010533 190.2794 169.8199 14.72617715  1742
STARLINK-11602 [DTC]    
1 63183U 25048A   25083.41668981 -.00877435  23773-3 -25670-2 0  9994
2 63183  43.0028 276.3652 0002084 255.5375 159.4048 15.91835366  2940
STARLINK-11617 [DTC]    
1 63184U 25048B   25083.41668981 -.00889333  24384-3 -25900-2 0  9990
2 63184  43.0027 276.3602 0002107 256.6940 160.2250 15.91924813  2942
STARLINK-11618 [DTC]    
1 63185U 25048C   25083.41668981 -.00894177  24659-3 -25858-2 0  9990
2 63185  43.0026 276.3542 0002209 261.3371 157.8916 15.92060667  2949
STARLINK-11646 [DTC]    
1 63186U 25048D   25083.41668981 -.00871905  23584-3 -25031-2 0  9994
2 63186  43.0025 276.3474 0002020 252.2880 169.5752 15.92196969  2941
STARLINK-11622 [DTC]    
1 63187U 25048E   25083.41668981 -.00887881  24402-3 -25350-2 0  9999
2 63187  43.0024 276.3415 0002067 252.5912 171.5852 15.92304759  2948
STARLINK-11642 [DTC]    
1 63188U 25048F   25083.41668981 -.00878968  23965-3 -25056-2 0  9992
2 63188  43.0024 276.3393 0002082 251.6836 173.4404 15.92333250  2948
STARLINK-11639 [DTC]    
1 63189U 25048G   25083.41668981 -.00863945  23265-3 -24397-2 0  9992
2 63189  43.0024 276.3301 0002095 259.5641 169.1050 15.92510293  2946
STARLINK-11637 [DTC]    
1 63190U 25048H   25083.41668981 -.00873007  23691-3 -24765-2 0  9996
2 63190  43.0024 276.3345 0002082 254.0750 172.8579 15.92425367  2947
STARLINK-11647 [DTC]    
1 63191U 25048J   25083.41668981 -.00845096  22467-3 -23204-2 0  9991
2 63191  43.0021 276.3027 0001986 250.6452 188.6146 15.93041254  2940
STARLINK-11643 [DTC]    
1 63192U 25048K   25083.41668981 -.00870568  23634-3 -24347-2 0  9990
2 63192  43.0023 276.3213 0002030 257.1455 174.9504 15.92696357  2941
STARLINK-11635 [DTC]    
1 63193U 25048L   25083.41668981 -.00858703  23067-3 -23922-2 0  9996
2 63193  43.0022 276.3164 0002033 256.1771 177.8593 15.92768191  2945
STARLINK-11636 [DTC]    
1 63194U 25048M   25083.41668981 -.00866694  23429-3 -24313-2 0  9992
2 63194  43.0021 276.3246 0002046 259.0037 171.8619 15.92637284  2948
STARLINK-11631 [DTC]    
1 63195U 25048N   25083.41668981 -.00858286  23079-3 -23730-2 0  9994
2 63195  43.0019 276.3095 0002134 252.8550 183.6751 15.92911621  2945
STARLINK-32946          
1 63196U 25048P   25083.41668981 -.01106765  36189-3 -33049-2 0  9994
2 63196  43.0014 276.2617 0002151 268.5238 186.7147 15.91479834  2987
STARLINK-32960          
1 63197U 25048Q   25083.41668981 -.00851718  23012-3 -22198-2 0  9993
2 63197  43.0012 276.2265 0002234 267.9007 201.2631 15.94024027  2988
STARLINK-32904          
1 63198U 25048R   25083.41668981 -.00849417  22907-3 -22096-2 0  9996
2 63198  43.0011 276.2235 0002199 265.3802 204.8364 15.94059352  2958
STARLINK-32931          
1 63199U 25048S   25078.50002315 -.00480839  88948-4 -84767-3 0  9995
2 63199  43.0042 307.0453 0002023 251.1837 348.2168 16.00961791  2205
STARLINK-32934          
1 63200U 25048T   25083.41668981 -.00861086  23510-3 -22265-2 0  9995
2 63200  43.0011 276.2158 0002056 258.9779 214.2909 15.94174800  2988
STARLINK-32938          
1 63201U 25048U   25083.41668981 -.00860653  23478-3 -22308-2 0  9996
2 63201  43.0013 276.2195 0002197 265.9711 205.9497 15.94128659  2982
STARLINK-32935          
1 63202U 25048V   25083.41668981 -.00910373  26067-3 -23312-2 0  9995
2 63202  43.0014 276.2048 0002220 267.4377 210.2757 15.94364307  2983
STARLINK-32930          
1 63203U 25048W   25083.41668981 -.00920952  26652-3 -23442-2 0  9994
2 63203  43.0014 276.1965 0002114 262.5236 218.5555 15.94478363  2955
CREW DRAGON 10          
1 63204U 25049A   25082.81935730  .00030504  00000+0  54208-3 0  9991
2 63204  51.6367   9.8496 0003778  44.5756 315.5536 15.49908264501537
QPS-SAR-9               
1 63205U 25050A   25083.36545396  .00014845  00000+0  12870-2 0  9998
2 63205  42.0215  56.2461 0005406 322.2265  37.8179 14.96842901  1395
ELECTRON R/B            
1 63206U 25050B   25083.38108628  .00925791  27234-3  25393-2 0  9991
2 63206  42.0234  51.1143 0209119 330.6010  28.3209 15.65730147  1468
ELECTRON KICK STAGE R/B 
1 63207U 25050C   25083.22781650  .00014407  00000+0  12275-2 0  9993
2 63207  42.0189  56.9442 0007655 333.8093  26.2344 14.97523909  1377
2025-051A               
1 63208U 25051A   25083.35769116  .00026696  00000+0  11924-2 0  9995
2 63208  97.4917 159.6830 0000548 187.6067 172.5160 15.21323559  1360
2025-051B               
1 63209U 25051B   25083.47741843  .00033849  00000+0  13865-2 0  9990
2 63209  97.4911 159.8281 0008966 247.3366 112.6923 15.24180026  1382
STARLINK-11654 [DTC]    
1 63265U 25053A   25083.41668981 -.00012921  00000+0 -51592-4 0  9990
2 63265  43.0014  68.8894 0001570 298.7227 335.5623 15.84770623  2629
STARLINK-11659 [DTC]    
1 63266U 25053B   25083.41668981 -.00251382  00000+0 -10673-2 0  9990
2 63266  43.0015  68.8817 0001536 299.2650 338.1281 15.84928226  2627
STARLINK-11653 [DTC]    
1 63267U 25053C   25083.41668981 -.00730504  00000+0 -32126-2 0  9996
2 63267  43.0015  68.8663 0001162 283.6110 359.7968 15.85348300  2621
STARLINK-11641 [DTC]    
1 63268U 25053D   25083.41668981 -.00477069  00000+0 -20636-2 0  9994
2 63268  43.0015  68.8751 0001403 294.2681 345.7032 15.85090445  2620
STARLINK-11638 [DTC]    
1 63269U 25053E   25083.08335648 -.00973494  00000+0 -42029-2 0  9992
2 63269  43.0014  70.9129 0001237 278.4270 262.4599 15.86298405  2570
STARLINK-11614 [DTC]    
1 63270U 25053F   25083.41668981  .00030829  00000+0  13066-3 0  9994
2 63270  43.0014  68.9195 0002093 316.1729 306.1491 15.84717918  2516
STARLINK-11620 [DTC]    
1 63271U 25053G   25083.41668981  .00081487  00000+0  33987-3 0  9995
2 63271  43.0014  68.9116 0001813 309.5562 315.8855 15.84699859  2514
STARLINK-11619 [DTC]    
1 63272U 25053H   25083.41668981  .00059706  00000+0  24993-3 0  9992
2 63272  43.0012  68.9046 0001265 299.7185 328.4657 15.84728752  2141
STARLINK-11621 [DTC]    
1 63273U 25053J   25083.41668981  .00065172  00000+0  27241-3 0  9996
2 63273  43.0014  68.8972 0001948 292.5603 338.5604 15.84729144  2527
STARLINK-11615 [DTC]    
1 63274U 25053K   25083.41668981 -.00908637  00000+0 -41680-2 0  9993
2 63274  43.0013  68.9448 0001515 292.3901 319.8277 15.84904297  2527
STARLINK-11608 [DTC]    
1 63275U 25053L   25083.08335648  .00014524  00000+0  62812-4 0  9991
2 63275  43.0012  70.9910 0001645 312.2058 197.5126 15.84748751  2461
STARLINK-11623 [DTC]    
1 63276U 25053M   25083.08335648 -.00018240  00000+0 -73858-4 0  9995
2 63276  43.0012  70.9826 0001011 289.1983 223.9444 15.84767171  2468
STARLINK-11612 [DTC]    
1 63277U 25053N   25083.41668981  .00084484  00000+0  35195-3 0  9994
2 63277  43.0014  68.9281 0001708 309.3304 309.5415 15.84712942  2463
STARLINK-33660          
1 63278U 25053P   25083.08335648 -.01044889  00000+0 -44198-2 0  9999
2 63278  43.0008  70.8388 0001316 278.6232 290.8702 15.86881145  2588
STARLINK-33611          
1 63279U 25053Q   25083.08335648 -.00948384  00000+0 -39961-2 0  9994
2 63279  43.0016  70.8956 0000865 273.3041 274.0316 15.86733151  2585
STARLINK-33646          
1 63280U 25053R   25083.08335648 -.00956027  00000+0 -40225-2 0  9994
2 63280  43.0012  70.8911 0000880 270.2570 278.9672 15.86780122  2526
STARLINK-33665          
1 63281U 25053S   25083.08335648 -.00963487  00000+0 -40474-2 0  9999
2 63281  43.0013  70.8851 0001055 284.6245 266.8515 15.86828365  2584
STARLINK-33603          
1 63282U 25053T   25083.08335648 -.00970494  00000+0 -40706-2 0  9994
2 63282  43.0013  70.8793 0000931 272.4386 281.1480 15.86876955  2582
STARLINK-33669          
1 63283U 25053U   25083.08335648 -.00982306  00000+0 -41147-2 0  9990
2 63283  43.0012  70.8744 0001180 278.6695 277.0057 15.86929105  2586
STARLINK-33673          
1 63284U 25053V   25083.08335648 -.00993342  00000+0 -41553-2 0  9994
2 63284  43.0012  70.8685 0001257 279.8794 278.2556 15.86981698  2581
STARLINK-33662          
1 63285U 25053W   25083.08335648 -.00999206  00000+0 -41735-2 0  9992
2 63285  43.0013  70.8637 0000995 269.1203 290.6829 15.87028708  2525
STARLINK-33613          
1 63286U 25053X   25083.08335648 -.00929112  00000+0 -39251-2 0  9992
2 63286  43.0014  70.9050 0000861 273.4318 270.2448 15.86635128  2580
STARLINK-33680          
1 63287U 25053Y   25083.41668981 -.00873056  00000+0 -37823-2 0  9997
2 63287  43.0016  68.8456 0001350 286.4656   4.8620 15.85988758  2584
COSMOS 2585             
1 63288U 25054A   25082.93757968  .00000007  00000+0 -19037-4 0  9995
2 63288  82.5028 358.7716 0014635 330.0173  30.0065 12.40409470   934
COSMOS 2586             
1 63289U 25054B   25082.85479675 -.00000013  00000+0 -16962-3 0  9994
2 63289  82.4983 358.8118 0013932 322.8626  37.1487 12.40768741   915
COSMOS 2587             
1 63290U 25054C   25083.49835654  .00000006  00000+0 -29835-4 0  9995
2 63290  82.5033 358.4203 0013703 316.3122  43.6871 12.41004836   996
2025-055A               
1 63291U 25055A   25083.54036207  .00022160  00000+0  13677-2 0  9999
2 63291  97.5987 218.8971 0012467 268.8814  91.0987 15.09855420  1094
2025-055B               
1 63292U 25055B   25083.54055710  .00022408  00000+0  13845-2 0  9992
2 63292  97.5962 218.8945 0012396 268.1688  91.8122 15.09813885  1056
2025-055C               
1 63293U 25055C   25083.54071603  .00022499  00000+0  13913-2 0  9998
2 63293  97.5973 218.8953 0012661 266.9083  93.0697 15.09780104  1056
2025-055D               
1 63294U 25055D   25083.54102341  .00021964  00000+0  13608-2 0  9990
2 63294  97.5974 218.8949 0012693 265.7195  94.2584 15.09715581  1054
2025-055E               
1 63295U 25055E   25083.54117375  .00021946  00000+0  13610-2 0  9997
2 63295  97.5960 218.8934 0012187 265.8683  94.1153 15.09684203  1052
2025-055F               
1 63296U 25055F   25083.54128280  .00025156  00000+0  15590-2 0  9991
2 63296  97.5985 218.8957 0012248 265.0594  94.9237 15.09679922  1059
2025-055G               
1 63297U 25055G   25083.54127108  .00029737  00000+0  18389-2 0  9998
2 63297  97.5972 218.8946 0012002 265.2738  94.7120 15.09724205  1058
2025-055H               
1 63298U 25055H   25083.34217876  .00036541  00000+0  22494-2 0  9992
2 63298  97.5969 218.6974 0012262 265.4846  94.4982 15.09838963  1021
TJS-15 AKM              
1 63299U 25045C   25082.35559067  .00000059  00000+0  00000+0 0  9994
2 63299   0.0448 121.2050 0017911  24.3520 214.5496  0.98872964   153
KINEIS-4C               
1 63300U 25056A   25083.53604372  .00007790  00000+0  11620-2 0  9992
2 63300  97.9680 210.7253 0000463 142.8173 217.3068 14.75095691   950
KINEIS-4D               
1 63301U 25056B   25083.53678146  .00007985  00000+0  11954-2 0  9999
2 63301  97.9680 210.7241 0001014  48.2895 311.8401 14.74927961   955
KINEIS-4E               
1 63302U 25056C   25083.53641685  .00007962  00000+0  11898-2 0  9990
2 63302  97.9680 210.7246 0000829  23.9629 336.1618 14.75011656   955
KINEIS-4A               
1 63303U 25056D   25083.53481198  .00007888  00000+0  11688-2 0  9996
2 63303  97.9680 210.7269 0001326 287.4602  72.6462 14.75378728   946
KINEIS-4B               
1 63304U 25056E   25083.53421038  .00006743  00000+0  99725-3 0  9992
2 63304  97.9680 210.7275 0001749 247.0198 113.0827 14.75510230   946
2025-056F               
1 63305U 25056F   25083.17460747  .02634945  24163-5  18211-2 0  9998
2 63305  97.9584 211.2439 0244873 209.1875 149.5522 15.76532251   941
2025-056G               
1 63306U 25056G   25082.88625721  .00009070  00000+0  10456-2 0  9995
2 63306  97.9661 210.1774 0044909  19.7305 340.5634 14.85176352   851
STARLINK-11568 [DTC]    
1 63307U 25057A   25083.08335648 -.00868419  23422-3 -24871-2 0  9991
2 63307  43.0035 220.6481 0002340 277.1149 148.7282 15.92241177   842
STARLINK-11575 [DTC]    
1 63308U 25057B   25083.08335648 -.00867020  23369-3 -24746-2 0  9990
2 63308  43.0037 220.6458 0002251 274.5332 152.2446 15.92306847   843
STARLINK-11585 [DTC]    
1 63309U 25057C   25083.41668981 -.00827074  21353-3 -24160-2 0  9993
2 63309  43.0032 218.5711 0001907 259.1271 281.5728 15.91856115   896
STARLINK-11587 [DTC]    
1 63310U 25057D   25083.08335648 -.00831629  21704-3 -23490-2 0  9995
2 63310  43.0037 220.6405 0002261 269.2349 159.6715 15.92499320   847
STARLINK-11589 [DTC]    
1 63311U 25057E   25083.41668981 -.00823870  21252-3 -23770-2 0  9990
2 63311  43.0033 218.5650 0001816 254.0986 289.0868 15.92093717   898
STARLINK-11650 [DTC]    
1 63312U 25057F   25083.41668981 -.00821611  21164-3 -23600-2 0  9996
2 63312  43.0032 218.5623 0001984 262.8450 281.3522 15.92177615  2093
STARLINK-11648 [DTC]    
1 63313U 25057G   25083.08335648 -.00824894  21451-3 -22919-2 0  9998
2 63313  43.0037 220.6325 0002193 269.0365 162.9950 15.92812136  1608
STARLINK-11640 [DTC]    
1 63314U 25057H   25083.08335648 -.00822334  21351-3 -22732-2 0  9998
2 63314  43.0038 220.6301 0002183 271.6816 161.3487 15.92908301   846
STARLINK-11652 [DTC]    
1 63315U 25057J   25083.08335648 -.00828274  21657-3 -22756-2 0  9993
2 63315  43.0037 220.6270 0002264 275.0345 159.0849 15.93025580   842
STARLINK-11645 [DTC]    
1 63316U 25057K   25083.08335648 -.00826208  21577-3 -22595-2 0  9991
2 63316  43.0037 220.6250 0002272 274.3185 160.7293 15.93112400  2037
STARLINK-11633 [DTC]    
1 63317U 25057L   25083.08335648 -.00819382  21276-3 -22284-2 0  9998
2 63317  43.0038 220.6224 0002337 276.6066 159.5117 15.93216191  1981
STARLINK-11593 [DTC]    
1 63318U 25057M   25083.08335648 -.00819059  21277-3 -22188-2 0  9994
2 63318  43.0038 220.6203 0002272 275.8722 161.1029 15.93290600  2032
STARLINK-11588 [DTC]    
1 63319U 25057N   25083.41668981 -.00797396  20188-3 -22047-2 0  9994
2 63319  43.0037 218.5425 0002061 260.5541 291.6355 15.92900420  1936
STARLINK-33671          
1 63320U 25057P   25083.41668981 -.00770156  18968-3 -21197-2 0  9999
2 63320  43.0040 218.5357 0003553 250.3597 304.5584 15.92974013  2108
STARLINK-33650          
1 63321U 25057Q   25083.41668981 -.00753945  18259-3 -20698-2 0  9995
2 63321  43.0041 218.5336 0003533 248.8572 306.9637 15.93019392  1824
STARLINK-33689          
1 63322U 25057R   25083.41668981 -.00767537  18879-3 -20951-2 0  9998
2 63322  43.0042 218.5306 0004581 251.7055 305.3102 15.93122359  2106
STARLINK-33607          
1 63323U 25057S   25083.41668981 -.00735971  17505-3 -20040-2 0  9990
2 63323  43.0042 218.5281 0003472 239.0983 318.9442 15.93171207  1737
STARLINK-33619          
1 63324U 25057T   25083.41668981 -.00747388  18018-3 -20245-2 0  9993
2 63324  43.0040 218.5248 0003196 248.1279 311.1307 15.93273800  2100
STARLINK-33612          
1 63325U 25057U   25083.08335648 -.00796253  20333-3 -20873-2 0  9993
2 63325  43.0043 220.5987 0005329 251.4840 194.1417 15.93883192  2043
STARLINK-33672          
1 63326U 25057V   25083.41668981 -.00757624  18501-3 -20318-2 0  9997
2 63326  43.0040 218.5187 0004358 250.9086 310.7107 15.93456362  2101
STARLINK-33625          
1 63327U 25057W   25083.41668981 -.00747123  18051-3 -19972-2 0  9995
2 63327  43.0040 218.5163 0003641 244.5770 318.0442 15.93520387  2101
STARLINK-33699          
1 63328U 25057X   25083.41668981 -.00752604  18308-3 -20021-2 0  9998
2 63328  43.0038 218.5134 0003407 241.7360 322.0433 15.93614509  1835
STARLINK-33674          
1 63329U 25057Y   25083.41668981 -.00772261  19202-3 -20441-2 0  9990
2 63329  43.0038 218.5103 0004135 250.3079 314.5614 15.93707552  2103
SPHEREX DEB             
1 63332U 25047F   25082.79256177  .00016869  00000+0  26165-2 0  9997
2 63332  97.9571 271.4477 0008971 184.0908 176.0228 14.73170887   624
YUNYAO-1 A              
1 63344U 25059A   25083.35733565  .00009791  00000+0  61613-3 0  9991
2 63344  97.5980 263.5380 0011661 279.8148  80.1764 15.09348622   445
YUNYAO-1 B              
1 63345U 25059B   25082.56173779  .00010991  00000+0  69061-3 0  9998
2 63345  97.5968 262.7494 0012133 282.8431  77.1442 15.09366116   327
YUNYAO-1 C              
1 63346U 25059C   25083.35718774  .00009788  00000+0  61459-3 0  9992
2 63346  97.5998 263.5386 0012060 280.7897  79.1974 15.09425367   441
YUNYAO-1 D              
1 63347U 25059D   25083.35717220  .00009627  00000+0  60443-3 0  9992
2 63347  97.5990 263.5384 0012120 281.0212  78.9653 15.09433029   449
YUNYAO-1 E              
1 63348U 25059E   25083.35705934  .00009952  00000+0  62365-3 0  9998
2 63348  97.5964 263.5376 0012226 281.9829  78.0029 15.09492901   433
YUNYAO-1 F              
1 63349U 25059F   25083.02555835  .00010616  00000+0  66447-3 0  9990
2 63349  97.5976 263.2097 0011986 284.6605  75.3295 15.09519462   389